start=new Date('2022-03-18T00:00:00.000Z').valueOf();
sats=[{"PERIOD":"95.594","EPHEMERIS_TYPE":"0","SEMIMAJOR_AXIS":"6925.444","NORAD_CAT_ID":"45768","APOAPSIS":"548.527","MEAN_MOTION_DOT":"0.00015288","EPOCH":"2022-03-17T22:02:57.224832","GP_ID":"198989974","REV_AT_EPOCH":"9751","ARG_OF_PERICENTER":"66.1381","COUNTRY_CODE":"US","RA_OF_ASC_NODE":"258.3717","FILE":"3363151","MEAN_ANOMALY":"293.9792","ECCENTRICITY":"0.00017580","BSTAR":"0.00104390000000","PERIAPSIS":"546.092","SITE":"AFETR","MEAN_MOTION_DDOT":"0.0000000000000","OBJECT_NAME":"STARLINK-1521","INCLINATION":"53.0519","MEAN_MOTION":"15.06368839","ELEMENT_SET_NO":"999","TLE_LINE1":"1 45768U 20038AQ  22076.91871788  .00015288  00000-0  10439-2 0  9992","REF_FRAME":"TEME","TIME_SYSTEM":"UTC","RCS_SIZE":"LARGE","TLE_LINE2":"2 45768  53.0519 258.3717 0001758  66.1381 293.9792 15.06368839 97516","LAUNCH_DATE":"2020-06-13","CENTER_NAME":"EARTH","OBJECT_TYPE":"PAYLOAD","MEAN_ELEMENT_THEORY":"SGP4","CLASSIFICATION_TYPE":"U","DECAY_DATE":null,"OBJECT_ID":"2020-038AQ"},{"EPOCH":"2022-03-17T21:01:52.552416","MEAN_MOTION_DOT":"-0.00003449","GP_ID":"198990225","REV_AT_EPOCH":"9722","PERIOD":"95.593","EPHEMERIS_TYPE":"0","SEMIMAJOR_AXIS":"6925.379","NORAD_CAT_ID":"45769","APOAPSIS":"548.325","SITE":"AFETR","OBJECT_NAME":"STARLINK-1459","MEAN_MOTION_DDOT":"0.0000000000000","COUNTRY_CODE":"US","ARG_OF_PERICENTER":"59.8339","RA_OF_ASC_NODE":"278.5605","MEAN_ANOMALY":"300.2805","FILE":"3363151","PERIAPSIS":"546.164","BSTAR":"-0.00021278000000","ECCENTRICITY":"0.00015600","TIME_SYSTEM":"UTC","RCS_SIZE":"LARGE","LAUNCH_DATE":"2020-06-13","TLE_LINE2":"2 45769  53.0537 278.5605 0001560  59.8339 300.2805 15.06389990 97226","INCLINATION":"53.0537","MEAN_MOTION":"15.06389990","REF_FRAME":"TEME","TLE_LINE1":"1 45769U 20038AR  22076.87630269 -.00003449  00000-0 -21278-3 0  9997","ELEMENT_SET_NO":"999","CLASSIFICATION_TYPE":"U","MEAN_ELEMENT_THEORY":"SGP4","OBJECT_ID":"2020-038AR","DECAY_DATE":null,"CENTER_NAME":"EARTH","OBJECT_TYPE":"PAYLOAD"},{"EPHEMERIS_TYPE":"0","PERIOD":"95.592","APOAPSIS":"548.243","NORAD_CAT_ID":"45770","SEMIMAJOR_AXIS":"6925.360","GP_ID":"198990976","EPOCH":"2022-03-17T19:30:17.821728","MEAN_MOTION_DOT":"0.00003377","REV_AT_EPOCH":"9776","MEAN_ANOMALY":"290.2085","FILE":"3363151","COUNTRY_CODE":"US","ARG_OF_PERICENTER":"69.9062","RA_OF_ASC_NODE":"238.8299","PERIAPSIS":"546.208","ECCENTRICITY":"0.00014690","BSTAR":"0.00024555000000","SITE":"AFETR","OBJECT_NAME":"STARLINK-1462","MEAN_MOTION_DDOT":"0.0000000000000","REF_FRAME":"TEME","TLE_LINE1":"1 45770U 20038AS  22076.81270627  .00003377  00000-0  24555-3 0  9990","ELEMENT_SET_NO":"999","MEAN_MOTION":"15.06396191","INCLINATION":"53.0532","RCS_SIZE":"LARGE","TIME_SYSTEM":"UTC","LAUNCH_DATE":"2020-06-13","TLE_LINE2":"2 45770  53.0532 238.8299 0001469  69.9062 290.2085 15.06396191 97762","CENTER_NAME":"EARTH","OBJECT_TYPE":"PAYLOAD","CLASSIFICATION_TYPE":"U","MEAN_ELEMENT_THEORY":"SGP4","OBJECT_ID":"2020-038AS","DECAY_DATE":null},{"OBJECT_TYPE":"PAYLOAD","CENTER_NAME":"EARTH","OBJECT_ID":"2020-038AT","DECAY_DATE":null,"MEAN_ELEMENT_THEORY":"SGP4","CLASSIFICATION_TYPE":"U","MEAN_MOTION":"15.06403108","INCLINATION":"53.0541","ELEMENT_SET_NO":"999","REF_FRAME":"TEME","TLE_LINE1":"1 45771U 20038AT  22076.67357706 -.00001563  00000-0 -86044-4 0  9998","TLE_LINE2":"2 45771  53.0541 239.4701 0001615  70.2318 289.8845 15.06403108 97743","LAUNCH_DATE":"2020-06-13","TIME_SYSTEM":"UTC","RCS_SIZE":"LARGE","BSTAR":"-0.00008604400000","ECCENTRICITY":"0.00016150","PERIAPSIS":"546.086","RA_OF_ASC_NODE":"239.4701","COUNTRY_CODE":"US","ARG_OF_PERICENTER":"70.2318","FILE":"3363151","MEAN_ANOMALY":"289.8845","MEAN_MOTION_DDOT":"0.0000000000000","OBJECT_NAME":"STARLINK-1463","SITE":"AFETR","SEMIMAJOR_AXIS":"6925.339","NORAD_CAT_ID":"45771","APOAPSIS":"548.322","PERIOD":"95.592","EPHEMERIS_TYPE":"0","REV_AT_EPOCH":"9774","MEAN_MOTION_DOT":"-0.00001563","EPOCH":"2022-03-17T16:09:57.057984","GP_ID":"198989224"},{"PERIOD":"95.592","EPHEMERIS_TYPE":"0","NORAD_CAT_ID":"45772","SEMIMAJOR_AXIS":"6925.347","APOAPSIS":"548.188","MEAN_MOTION_DOT":"0.00002705","EPOCH":"2022-03-17T20:40:39.042336","GP_ID":"198989474","REV_AT_EPOCH":"9778","ARG_OF_PERICENTER":"75.2248","COUNTRY_CODE":"US","RA_OF_ASC_NODE":"238.6130","FILE":"3363151","MEAN_ANOMALY":"284.8898","ECCENTRICITY":"0.00014100","BSTAR":"0.00020041000000","PERIAPSIS":"546.235","SITE":"AFETR","MEAN_MOTION_DDOT":"0.0000000000000","OBJECT_NAME":"STARLINK-1470","MEAN_MOTION":"15.06400539","INCLINATION":"53.0521","ELEMENT_SET_NO":"999","TLE_LINE1":"1 45772U 20038AU  22076.86156299  .00002705  00000-0  20041-3 0  9995","REF_FRAME":"TEME","TIME_SYSTEM":"UTC","RCS_SIZE":"LARGE","TLE_LINE2":"2 45772  53.0521 238.6130 0001410  75.2248 284.8898 15.06400539 97781","LAUNCH_DATE":"2020-06-13","CENTER_NAME":"EARTH","OBJECT_TYPE":"PAYLOAD","MEAN_ELEMENT_THEORY":"SGP4","CLASSIFICATION_TYPE":"U","DECAY_DATE":null,"OBJECT_ID":"2020-038AU"},{"LAUNCH_DATE":"2020-06-13","TLE_LINE2":"2 45773  53.0549 238.6545 0001380  67.0924 293.0210 15.06427800 97788","RCS_SIZE":"LARGE","TIME_SYSTEM":"UTC","REF_FRAME":"TEME","TLE_LINE1":"1 45773U 20038AV  22076.85417817 -.00004689  00000-0 -29589-3 0  9992","ELEMENT_SET_NO":"999","MEAN_MOTION":"15.06427800","INCLINATION":"53.0549","OBJECT_ID":"2020-038AV","DECAY_DATE":null,"CLASSIFICATION_TYPE":"U","MEAN_ELEMENT_THEORY":"SGP4","OBJECT_TYPE":"PAYLOAD","CENTER_NAME":"EARTH","REV_AT_EPOCH":"9778","GP_ID":"198990726","EPOCH":"2022-03-17T20:30:00.993888","MEAN_MOTION_DOT":"-0.00004689","APOAPSIS":"548.084","NORAD_CAT_ID":"45773","SEMIMAJOR_AXIS":"6925.263","EPHEMERIS_TYPE":"0","PERIOD":"95.590","OBJECT_NAME":"STARLINK-1482","MEAN_MOTION_DDOT":"0.0000000000000","SITE":"AFETR","PERIAPSIS":"546.173","ECCENTRICITY":"0.00013800","BSTAR":"-0.00029589000000","MEAN_ANOMALY":"293.0210","FILE":"3363151","ARG_OF_PERICENTER":"67.0924","COUNTRY_CODE":"US","RA_OF_ASC_NODE":"238.6545"},{"MEAN_MOTION_DDOT":"0.0000000000000","OBJECT_NAME":"STARLINK-1485","SITE":"AFETR","ECCENTRICITY":"0.00013270","BSTAR":"0.00018466000000","PERIAPSIS":"546.335","COUNTRY_CODE":"US","ARG_OF_PERICENTER":"65.4883","RA_OF_ASC_NODE":"239.0784","FILE":"3363151","MEAN_ANOMALY":"294.6244","REV_AT_EPOCH":"9776","MEAN_MOTION_DOT":"0.00002469","EPOCH":"2022-03-17T18:12:03.797856","GP_ID":"198990476","NORAD_CAT_ID":"45774","SEMIMAJOR_AXIS":"6925.389","APOAPSIS":"548.173","PERIOD":"95.593","EPHEMERIS_TYPE":"0","DECAY_DATE":null,"OBJECT_ID":"2020-038AW","MEAN_ELEMENT_THEORY":"SGP4","CLASSIFICATION_TYPE":"U","OBJECT_TYPE":"PAYLOAD","CENTER_NAME":"EARTH","TLE_LINE2":"2 45774  53.0555 239.0784 0001327  65.4883 294.6244 15.06386773 97768","LAUNCH_DATE":"2020-06-13","TIME_SYSTEM":"UTC","RCS_SIZE":"LARGE","INCLINATION":"53.0555","MEAN_MOTION":"15.06386773","ELEMENT_SET_NO":"999","REF_FRAME":"TEME","TLE_LINE1":"1 45774U 20038AW  22076.75837729  .00002469  00000-0  18466-3 0  9994"},{"PERIOD":"95.592","EPHEMERIS_TYPE":"0","NORAD_CAT_ID":"45775","SEMIMAJOR_AXIS":"6925.326","APOAPSIS":"548.125","MEAN_MOTION_DOT":"0.00001445","EPOCH":"2022-03-17T19:52:53.081760","GP_ID":"198989725","REV_AT_EPOCH":"9778","ARG_OF_PERICENTER":"77.5487","COUNTRY_CODE":"US","RA_OF_ASC_NODE":"238.7690","FILE":"3363151","MEAN_ANOMALY":"282.5653","BSTAR":"0.00011589000000","ECCENTRICITY":"0.00013490","PERIAPSIS":"546.257","SITE":"AFETR","MEAN_MOTION_DDOT":"0.0000000000000","OBJECT_NAME":"STARLINK-1488","MEAN_MOTION":"15.06407322","INCLINATION":"53.0531","ELEMENT_SET_NO":"999","REF_FRAME":"TEME","TLE_LINE1":"1 45775U 20038AX  22076.82839215  .00001445  00000-0  11589-3 0  9997","TIME_SYSTEM":"UTC","RCS_SIZE":"LARGE","TLE_LINE2":"2 45775  53.0531 238.7690 0001349  77.5487 282.5653 15.06407322 97789","LAUNCH_DATE":"2020-06-13","CENTER_NAME":"EARTH","OBJECT_TYPE":"PAYLOAD","MEAN_ELEMENT_THEORY":"SGP4","CLASSIFICATION_TYPE":"U","DECAY_DATE":null,"OBJECT_ID":"2020-038AX"},{"APOAPSIS":"548.298","NORAD_CAT_ID":"45776","SEMIMAJOR_AXIS":"6925.384","EPHEMERIS_TYPE":"0","PERIOD":"95.593","REV_AT_EPOCH":"9778","GP_ID":"198989975","MEAN_MOTION_DOT":"0.00003811","EPOCH":"2022-03-17T20:03:31.112064","ECCENTRICITY":"0.00015140","BSTAR":"0.00027471000000","PERIAPSIS":"546.201","FILE":"3363151","MEAN_ANOMALY":"294.6580","ARG_OF_PERICENTER":"65.4567","COUNTRY_CODE":"US","RA_OF_ASC_NODE":"238.7221","MEAN_MOTION_DDOT":"0.0000000000000","OBJECT_NAME":"STARLINK-1489","SITE":"AFETR","ELEMENT_SET_NO":"999","TLE_LINE1":"1 45776U 20038AY  22076.83577676  .00003811  00000-0  27471-3 0  9995","REF_FRAME":"TEME","MEAN_MOTION":"15.06388335","INCLINATION":"53.0526","TLE_LINE2":"2 45776  53.0526 238.7221 0001514  65.4567 294.6580 15.06388335 97788","LAUNCH_DATE":"2020-06-13","RCS_SIZE":"LARGE","TIME_SYSTEM":"UTC","OBJECT_TYPE":"PAYLOAD","CENTER_NAME":"EARTH","OBJECT_ID":"2020-038AY","DECAY_DATE":null,"MEAN_ELEMENT_THEORY":"SGP4","CLASSIFICATION_TYPE":"U"},{"REV_AT_EPOCH":"9777","GP_ID":"198990226","EPOCH":"2022-03-17T18:22:39.920448","MEAN_MOTION_DOT":"0.00000170","APOAPSIS":"548.323","SEMIMAJOR_AXIS":"6925.334","NORAD_CAT_ID":"45777","EPHEMERIS_TYPE":"0","PERIOD":"95.592","OBJECT_NAME":"STARLINK-1490","MEAN_MOTION_DDOT":"0.0000000000000","SITE":"AFETR","PERIAPSIS":"546.074","ECCENTRICITY":"0.00016240","BSTAR":"0.00003032300000","MEAN_ANOMALY":"291.7960","FILE":"3363151","RA_OF_ASC_NODE":"239.0560","COUNTRY_CODE":"US","ARG_OF_PERICENTER":"68.3202","LAUNCH_DATE":"2020-06-13","TLE_LINE2":"2 45777  53.0531 239.0560 0001624  68.3202 291.7960 15.06404902 97773","RCS_SIZE":"LARGE","TIME_SYSTEM":"UTC","TLE_LINE1":"1 45777U 20038AZ  22076.76573982  .00000170  00000-0  30323-4 0  9990","REF_FRAME":"TEME","ELEMENT_SET_NO":"999","INCLINATION":"53.0531","MEAN_MOTION":"15.06404902","OBJECT_ID":"2020-038AZ","DECAY_DATE":null,"CLASSIFICATION_TYPE":"U","MEAN_ELEMENT_THEORY":"SGP4","OBJECT_TYPE":"PAYLOAD","CENTER_NAME":"EARTH"}];
